SKYNET 1A               
1 04250U 69101A   24129.62561178 -.00000088  00000+0  00000+0 0  9997
2 04250   1.5555 276.9048 0021764 308.0352 121.9872  1.00267704126805
